[{"OBJECT_NAME":"STARLINK-35107","OBJECT_ID":"2025-195G","EPOCH":"2026-03-09T17:20:09.242016","MEAN_MOTION":15.30212768,"ECCENTRICITY":8.924e-5,"INCLINATION":53.1598,"RA_OF_ASC_NODE":257.68,"ARG_OF_PERICENTER":152.0857,"MEAN_ANOMALY":208.0192,"EPHEMERIS_TYPE":0,"CLASSIFICATION_TYPE":"U","NORAD_CAT_ID":65464,"ELEMENT_SET_NO":999,"REV_AT_EPOCH":3000,"BSTAR":0.0011506121,"MEAN_MOTION_DOT":0.00033888,"MEAN_MOTION_DDOT":0},{"OBJECT_NAME":"SL-3 R\/B","OBJECT_ID":"1981-065B","EPOCH":"2026-03-09T21:58:16.284000","MEAN_MOTION":15.33300883,"ECCENTRICITY":0.00117648,"INCLINATION":97.6337,"RA_OF_ASC_NODE":111.1786,"ARG_OF_PERICENTER":10.529,"MEAN_ANOMALY":349.6196,"EPHEMERIS_TYPE":0,"CLASSIFICATION_TYPE":"U","NORAD_CAT_ID":12586,"ELEMENT_SET_NO":999,"REV_AT_EPOCH":43499,"BSTAR":0.00030084921,"MEAN_MOTION_DOT":9.62e-5,"MEAN_MOTION_DDOT":0}]
